{
  "norad_id": 64895,
  "name": "2025-155V",
  "history": [
    {
      "epoch": "2026-03-28T20:26:13.869888",
      "apogee_km": 488.21692803541555,
      "perigee_km": 475.2416281677124,
      "latitude_deg": -4.169439578886097,
      "longitude_deg": 31.248744320124388,
      "semi_major_axis_km": 6859.866278101564,
      "eccentricity": 0.00094574,
      "inclination_deg": 97.4504,
      "raan_deg": 56.2271,
      "arg_perigee_deg": 98.7294,
      "mean_anomaly_deg": 261.5017,
      "mean_motion_rev_day": 15.28020874
    },
    {
      "epoch": "2026-03-29T04:17:43.813248",
      "apogee_km": 488.18880795928635,
      "perigee_km": 475.2017734665078,
      "latitude_deg": -75.49568332675318,
      "longitude_deg": 62.682014719815925,
      "semi_major_axis_km": 6859.832290712897,
      "eccentricity": 0.0009466,
      "inclination_deg": 97.4505,
      "raan_deg": 56.5545,
      "arg_perigee_deg": 97.9059,
      "mean_anomaly_deg": 262.3255,
      "mean_motion_rev_day": 15.2803223
    }
  ]
}